{
    "links": {
        "self": "http://www.neowsapp.com/rest/v1/neo/3753573?api_key=iIulBulltgU6a56xZRHN4H3l9WmuAYTsLGpBGhQ2"
    },
    "id": "3753573",
    "neo_reference_id": "3753573",
    "name": "(2016 KJ)",
    "designation": "2016 KJ",
    "nasa_jpl_url": "http://ssd.jpl.nasa.gov/sbdb.cgi?sstr=3753573",
    "absolute_magnitude_h": 24.8,
    "estimated_diameter": {
        "kilometers": {
            "estimated_diameter_min": 0.0291443905,
            "estimated_diameter_max": 0.0651688382
        },
        "meters": {
            "estimated_diameter_min": 29.1443904535,
            "estimated_diameter_max": 65.1688382168
        },
        "miles": {
            "estimated_diameter_min": 0.018109479,
            "estimated_diameter_max": 0.0404940262
        },
        "feet": {
            "estimated_diameter_min": 95.6180819754,
            "estimated_diameter_max": 213.8085311752
        }
    },
    "is_potentially_hazardous_asteroid": false,
    "close_approach_data": [
        {
            "close_approach_date": "2016-05-27",
            "close_approach_date_full": "2016-May-27 08:42",
            "epoch_date_close_approach": 1464338520000,
            "relative_velocity": {
                "kilometers_per_second": "20.6738175384",
                "kilometers_per_hour": "74425.7431381072",
                "miles_per_hour": "46245.2624515644"
            },
            "miss_distance": {
                "astronomical": "0.0182392894",
                "lunar": "7.0950835766",
                "kilometers": "2728558.844553578",
                "miles": "1695447.8470442564"
            },
            "orbiting_body": "Earth"
        }
    ],
    "orbital_data": {
        "orbit_id": "5",
        "orbit_determination_date": "2017-04-06 08:25:45",
        "first_observation_date": "2016-05-25",
        "last_observation_date": "2016-05-27",
        "data_arc_in_days": 2,
        "observations_used": 44,
        "orbit_uncertainty": "9",
        "minimum_orbit_intersection": ".00583921",
        "jupiter_tisserand_invariant": "2.904",
        "epoch_osculation": "2457534.5",
        "eccentricity": ".753329231770262",
        "semi_major_axis": "2.646602195626982",
        "inclination": "1.022552489948101",
        "ascending_node_longitude": "204.1609779426977",
        "orbital_period": "1572.647647234305",
        "perihelion_distance": ".652839396793819",
        "perihelion_argument": "121.3080416806415",
        "aphelion_distance": "4.640364994460144",
        "perihelion_time": "2457580.488465505998",
        "mean_anomaly": "349.4726275073283",
        "mean_motion": ".2289133237398119",
        "equinox": "J2000",
        "orbit_class": {
            "orbit_class_type": "APO",
            "orbit_class_description": "Near-Earth asteroid orbits which cross the Earth’s orbit similar to that of 1862 Apollo",
            "orbit_class_range": "a (semi-major axis) > 1.0 AU; q (perihelion) < 1.017 AU"
        }
    },
    "is_sentry_object": false
}